LANDSAT 9               
1 49260U 21088A   24107.78055580  .00001170  00000+0  26962-3 0  9998
2 49260  98.1905 178.4291 0001228  82.4902 277.6436 14.57135909135744
